NUSTAR                  
1 38358U 12031A   24129.25002315  .00014683  00000+0  12122-2 0  9991
2 38358   6.0289 357.0161 0011477 272.0183 107.6280 14.95732273648296
NEOSSAT                 
1 39089U 13009D   24128.46767243  .00000413  00000+0  15942-3 0  9999
2 39089  98.4055 316.9041 0011715  29.4364 330.7480 14.35138015586161
BRITE-AUSTRIA           
1 39091U 13009F   24129.11281101  .00000329  00000+0  12830-3 0  9998
2 39091  98.3864 317.7719 0010821  25.8132 334.3592 14.35769570586522
IRIS                    
1 39197U 13033A   24128.78816068  .00001630  00000+0  21210-3 0  9998
2 39197  97.9656 319.6424 0025116 314.4437  45.4721 14.81820615586102
HISAKI (SPRINT-A)       
1 39253U 13049A   24128.50492037  .00000196  00000+0  17444-3 0  9994
2 39253  29.7186 177.7817 0136808 249.4924 109.0916 13.55388788526785
CASSIOPE                
1 39265U 13055A   24129.13245971  .00026044  00000+0  54976-3 0  9998
2 39265  80.9563 240.3433 0504553  31.5209 331.5192 14.68426753552494
STSAT-3                 
1 39422U 13066G   24129.19299986  .00003322  00000+0  31111-3 0  9996
2 39422  97.5182 110.3517 0022365 130.8591 229.4573 14.94517171568840
SWARM B                 
1 39451U 13067A   24128.88268333  .00003986  00000+0  18401-3 0  9999
2 39451  87.7557 214.5317 0002676  98.8949 261.2598 15.19943281565871
SWARM A                 
1 39452U 13067B   24129.16963085  .00007102  00000+0  23054-3 0  9992
2 39452  87.3429 337.5090 0002291 101.9815 258.1692 15.31767008587689
SWARM C                 
1 39453U 13067C   24129.16955239  .00007307  00000+0  23722-3 0  9994
2 39453  87.3425 336.1027 0002247 101.6961 258.4542 15.31768726587642
BRITE-CA1 (TORONTO)     
1 40020U 14033L   24129.11517923  .00001810  00000+0  29990-3 0  9995
2 40020  97.8716 267.6670 0082665 219.3639 140.1541 14.69222737529094
OCO 2                   
1 40059U 14035A   24129.16333231  .00000961  00000+0  22351-3 0  9992
2 40059  98.2006  70.5558 0002039  91.8627 268.2805 14.57062877523921
BRITE-PL2 (HEWELIUSZ)   
1 40119U 14049B   24128.82350188  .00003300  00000+0  35965-3 0  9991
2 40119  97.8801 228.6864 0017065 134.8134 225.4474 14.88569382526576
RESURS-P 2              
1 40360U 14087A   24129.18210154  .00025465  00000+0  35607-3 0  9998
2 40360  97.1520 215.5576 0007500  91.9622 268.2492 15.56787990524833
MMS 1                   
1 40482U 15011A   24129.25002315 -.00000612  00000+0  00000+0 0  9990
2 40482  45.6944  14.1447 9111097 144.1613   5.8983  0.28467252 15264
MMS 2                   
1 40483U 15011B   24129.25002315 -.00000612  00000+0  00000+0 0  9991
2 40483  45.6896  14.1363 9110851 144.1683   5.8960  0.28477499 15249
MMS 3                   
1 40484U 15011C   24129.25002315 -.00000612  00000+0  00000+0 0  9992
2 40484  45.6938  14.1413 9111680 144.1703   5.8782  0.28467652 15249
MMS 4                   
1 40485U 15011D   24129.25002315 -.00000612  00000+0  00000+0 0  9993
2 40485  45.6922  14.1427 9110273 144.1676   5.8798  0.28477860 15243
ASTROSAT                
1 40930U 15052A   24129.06691526  .00002426  00000+0  23561-3 0  9995
2 40930   5.9978 286.1548 0008918 228.1055 131.8312 14.78808358465511
DAMPE                   
1 41173U 15078A   24129.22510211  .00002081  00000+0  81300-4 0  9995
2 41173  97.4297 122.9297 0011173 286.0891  73.9118 15.26969480466886
PISAT                   
1 41784U 16059B   24129.01621485  .00001528  00000+0  28688-3 0  9990
2 41784  97.8367 152.8602 0031827 139.1770 221.1827 14.65746727406775
HXMT (HUIYAN)           
1 42758U 17034A   24129.18939954  .00006308  00000+0  35539-3 0  9991
2 42758  43.0130 136.0579 0016318 266.3393  93.5587 15.13702886380796
FLYING LAPTOP           
1 42831U 17042G   24128.88984800  .00002099  00000+0  19728-3 0  9993
2 42831  97.3852 312.1809 0012232 206.8022 153.2569 14.94867873371119
ZHANGHENG 1 (CSES)      
1 43194U 18015C   24129.20880460  .00014639  00000+0  66564-3 0  9994
2 43194  97.6046 272.5467 0007033 281.4510  78.5934 15.20823660347612
SALSAT                  
1 46495U 20068K   24128.86083443  .00006755  00000+0  39187-3 0  9990
2 46495  97.8140  87.1676 0016243  91.6570 268.6521 15.12389876198219
IXPE                    
1 49954U 21121A   24128.91667824  .00006639  00000+0  48408-3 0  9998
2 49954   0.2311 332.0884 0009654  43.2509  31.1347 14.97627499  5490
<!DOCTYPE html PUBLIC "-//W3C//DTD XHTML 1.0 Strict//EN" "http://www.w3.org/TR/xhtml1/DTD/xhtml1-strict.dtd">
<html xmlns="http://www.w3.org/1999/xhtml">
<head>
<meta http-equiv="Content-Type" content="text/html; charset=iso-8859-1"/>
<title>404 - File Not Found.</title>
<style type="text/css">
<!--
body{margin:0;font-size:.7em;font-family:Verdana, Arial, Helvetica, sans-serif;background:#EEEEEE;}
fieldset{padding:0 15px 10px 15px;}
h1{font-size:2.4em;margin:0;color:#FFF;}
h2{font-size:1.7em;margin:0;color:#CC0000;}
h3{font-size:1.2em;margin:10px 0 0 0;color:#000000;}
#header{width:96%;margin:0 0 0 0;padding:6px 2% 6px 2%;font-family:"trebuchet MS", Verdana, sans-serif;color:#FFF;
background-color:#555555;}
#content{margin:0 0 0 2%;position:relative;}
.content-container{background:#FFF;width:96%;margin-top:8px;padding:10px;position:relative;}
-->
</style>
</head>
<body>
<div id="header"><h1>Server Error</h1></div>
<div id="content">
 <div class="content-container"><fieldset>
  <h2>404 - File Not Found.</h2>
  <h3>File not found for celestrak.org/NORAD/elements/ses.txt.</h3>
  <h3>Please contact <a href="mailto:ts.kelso@celestrak.org">ts.kelso@celestrak.org</a> if you have other questions.</h3>
 </fieldset></div>
</div>
</body>
</html>
ISS (ZARYA)             
1 25544U 98067A   24129.34837963  .00014166  00000+0  24687-3 0  9998
2 25544  51.6381 152.9120 0003336 147.3897  50.7616 15.51003210452363
CSS (TIANHE)            
1 48274U 21035A   24128.98373090  .00042598  00000+0  45065-3 0  9992
2 48274  41.4682 328.7155 0003907 305.5247  54.5228 15.63361388172806
ISS (NAUKA)             
1 49044U 21066A   24128.93841875  .00019762  00000+0  34104-3 0  9997
2 49044  51.6394 154.9492 0003631 146.9140 280.6850 15.51005321158177
FREGAT DEB              
1 49271U 11037PF  24129.09015848  .00019131  00000+0  45186-1 0  9997
2 49271  51.6674 102.9059 0969537  36.8407 329.5223 12.14138191130323
CSS (WENTIAN)           
1 53239U 22085A   24128.91984968  .00041949  00000+0  44398-3 0  9997
2 53239  41.4682 329.1058 0003927 305.5297  54.5176 15.63355330101856
CSS (MENGTIAN)          
1 54216U 22143A   24128.91984968  .00041949  00000+0  44398-3 0  9998
2 54216  41.4682 329.1058 0003927 305.5297  54.5176 15.63355330 86337
ISS DEB [SPX-28 IPA FSE]
1 57212U 98067VP  24129.22808711  .00407770  83730-4  71132-3 0  9991
2 57212  51.6187 116.2433 0004784  52.5327 307.6118 16.01581415 49780
ISS DEB                 
1 58229U 98067WC  24129.19268675  .00150344  00000+0  81112-3 0  9990
2 58229  51.6262 138.0091 0006488  39.8722 320.2755 15.79151765 29337
PROGRESS-MS 25          
1 58460U 23184A   24128.93841875  .00019762  00000+0  34104-3 0  9992
2 58460  51.6394 154.9492 0003631 146.9140 280.6850 15.51005321 24474
BEAK                    
1 58612U 98067WD  24128.75919056  .00148956  00000+0  91919-3 0  9995
2 58612  51.6306 144.1431 0006104  44.7220 315.4271 15.76146184 22160
TIANZHOU-7              
1 58811U 24013A   24128.91984968  .00041949  00000+0  44398-3 0  9991
2 58811  41.4682 329.1058 0003927 305.5297  54.5176 15.63355330172428
CYGNUS NG-20            
1 58898U 24021A   24128.93841875  .00019762  00000+0  34104-3 0  9998
2 58898  51.6394 154.9492 0003631 146.9140 280.6850 15.51005321 14568
PROGRESS-MS 26          
1 58961U 24029A   24128.93841875  .00019762  00000+0  34104-3 0  9997
2 58961  51.6394 154.9492 0003631 146.9140 280.6850 15.51005321 12624
CREW DRAGON 8           
1 59097U 24042A   24128.93841875  .00019762  00000+0  34104-3 0  9993
2 59097  51.6394 154.9492 0003631 146.9140 280.6850 15.51005321  9834
SOYUZ-MS 25             
1 59294U 24055A   24128.93841875  .00019762  00000+0  34104-3 0  9996
2 59294  51.6394 154.9492 0003631 146.9140 280.6850 15.51005321  6379
MICROORBITER-1          
1 59483U 98067WF  24129.07034579  .00081352  00000+0  11465-2 0  9999
2 59483  51.6341 153.7258 0002853  96.0899 264.0417 15.55901644  4212
CURTIS                  
1 59507U 98067WG  24128.62740079  .00060599  00000+0  88805-3 0  9998
2 59507  51.6340 156.0174 0001621 101.7242 258.3931 15.54967482  4150
KASHIWA                 
1 59508U 98067WH  24129.06792235  .00090375  00000+0  12540-2 0  9996
2 59508  51.6337 153.7083 0002882  93.2892 266.8429 15.56275560  4221
1998-067WJ              
1 59559U 98067WJ  24128.96460034  .00058587  00000+0  88676-3 0  9992
2 59559  51.6350 154.5222 0004951  71.4440 288.7088 15.54086828  3073
1998-067WK              
1 59560U 98067WK  24128.37578140  .00088833  00000+0  12630-2 0  9990
2 59560  51.6346 157.3388 0007132  79.7469 280.4326 15.55601583  2918
1998-067WL              
1 59561U 98067WL  24128.33286125  .00038867  00000+0  62648-3 0  9993
2 59561  51.6359 157.8016 0002765  93.0517 267.0790 15.52535574  2948
BURSTCUBE               
1 59562U 98067WM  24129.09483542  .00062527  00000+0  94715-3 0  9990
2 59562  51.6348 153.8903 0002653 114.9900 245.1367 15.54045361  3077
1998-067WN              
1 59563U 98067WN  24128.77661307  .00043086  00000+0  66781-3 0  9993
2 59563  51.6358 155.5158 0003114 123.9611 236.1675 15.53573706  3016
SHENZHOU-18 (SZ-18)     
1 59591U 24078A   24128.72820444  .00039457  00000+0  41825-3 0  9998
2 59591  41.4681 330.2763 0003895 304.3350  55.7121 15.63337173172765
1998-067WP              
1 59596U 98067WP  24128.51068733  .00062520  00000+0  92818-3 0  9999
2 59596  51.6350 156.7395 0005167  69.1374 291.0170 15.54587990  3018
